{
  "type": "FeatureCollection",
  "features": [
    {
      "type": "Feature",
      "properties": {
        "norad_id": 59626,
        "name": "LEGION 2",
        "group": "resource",
        "lat": -35.94080120546515,
        "lon": -122.92040443534576,
        "alt_km": 521.5992281019799,
        "timestamp": "2025-12-13T20:38:50.652792+00:00",
        "meta_object_name": "LEGION 2",
        "meta_object_id": "2024-081B",
        "meta_epoch": "2025-12-13T07:01:39.643680",
        "meta_mean_motion": 15.1650385,
        "meta_eccentricity": 0.00057079,
        "meta_inclination": 97.5216,
        "meta_ra_of_asc_node": 62.0136,
        "meta_arg_of_pericenter": 291.0165,
        "meta_mean_anomaly": 69.0457,
        "meta_ephemeris_type": 0,
        "meta_classification_type": "U",
        "meta_norad_cat_id": 59626,
        "meta_element_set_no": 999,
        "meta_rev_at_epoch": 8936,
        "meta_bstar": 0.00045805508,
        "meta_mean_motion_dot": 8.864e-05,
        "meta_mean_motion_ddot": 0,
        "tle_line1": "1 59626U 24081B   25347.29281995  .00008864  00000+0  45806-3 0  9990",
        "tle_line2": "2 59626  97.5216  62.0136 0005707 291.0165  69.0457 15.16503850 89362"
      },
      "geometry": {
        "type": "Point",
        "coordinates": [
          -122.92040443534576,
          -35.94080120546515
        ]
      }
    },
    {
      "type": "Feature",
      "properties": {
        "norad_id": 60182,
        "name": "ALOS-4 (DAICHI-4)",
        "group": "resource",
        "lat": 80.33397436396406,
        "lon": 27.84605618454603,
        "alt_km": 622.5236557532617,
        "timestamp": "2025-12-13T20:38:50.652803+00:00",
        "meta_object_name": "ALOS-4 (DAICHI-4)",
        "meta_object_id": "2024-123A",
        "meta_epoch": "2025-12-10T20:50:51.532800",
        "meta_mean_motion": 14.79478132,
        "meta_eccentricity": 0.0001419,
        "meta_inclination": 97.9225,
        "meta_ra_of_asc_node": 79.7424,
        "meta_arg_of_pericenter": 101.2045,
        "meta_mean_anomaly": 258.9326,
        "meta_ephemeris_type": 0,
        "meta_classification_type": "U",
        "meta_norad_cat_id": 60182,
        "meta_element_set_no": 999,
        "meta_rev_at_epoch": 7803,
        "meta_bstar": 0.00039567,
        "meta_mean_motion_dot": 2.905e-05,
        "meta_mean_motion_ddot": 0,
        "tle_line1": "1 60182U 24123A   25344.86865200  .00002905  00000+0  39567-3 0  9990",
        "tle_line2": "2 60182  97.9225  79.7424 0001419 101.2045 258.9326 14.79478132 78033"
      },
      "geometry": {
        "type": "Point",
        "coordinates": [
          27.84605618454603,
          80.33397436396406
        ]
      }
    },
    {
      "type": "Feature",
      "properties": {
        "norad_id": 60452,
        "name": "LEGION 3",
        "group": "resource",
        "lat": -44.944595023651836,
        "lon": -142.95981761163455,
        "alt_km": 518.2905352871903,
        "timestamp": "2025-12-13T20:38:50.652813+00:00",
        "meta_object_name": "LEGION 3",
        "meta_object_id": "2024-146A",
        "meta_epoch": "2025-12-13T06:47:57.318720",
        "meta_mean_motion": 15.15771968,
        "meta_eccentricity": 0.0014941,
        "meta_inclination": 45.0016,
        "meta_ra_of_asc_node": 307.2189,
        "meta_arg_of_pericenter": 201.5893,
        "meta_mean_anomaly": 158.4357,
        "meta_ephemeris_type": 0,
        "meta_classification_type": "U",
        "meta_norad_cat_id": 60452,
        "meta_element_set_no": 999,
        "meta_rev_at_epoch": 7381,
        "meta_bstar": 0.00045578951,
        "meta_mean_motion_dot": 8.613e-05,
        "meta_mean_motion_ddot": 0,
        "tle_line1": "1 60452U 24146A   25347.28330230  .00008613  00000+0  45579-3 0  9996",
        "tle_line2": "2 60452  45.0016 307.2189 0014941 201.5893 158.4357 15.15771968 73814"
      },
      "geometry": {
        "type": "Point",
        "coordinates": [
          -142.95981761163455,
          -44.944595023651836
        ]
      }
    },
    {
      "type": "Feature",
      "properties": {
        "norad_id": 60453,
        "name": "LEGION 4",
        "group": "resource",
        "lat": -45.008243707399494,
        "lon": -55.722235339772,
        "alt_km": 517.7828093918779,
        "timestamp": "2025-12-13T20:38:50.652824+00:00",
        "meta_object_name": "LEGION 4",
        "meta_object_id": "2024-146B",
        "meta_epoch": "2025-12-13T06:48:45.885888",
        "meta_mean_motion": 15.15835188,
        "meta_eccentricity": 0.00094331,
        "meta_inclination": 45.0393,
        "meta_ra_of_asc_node": 38.9677,
        "meta_arg_of_pericenter": 313.9136,
        "meta_mean_anomaly": 46.0964,
        "meta_ephemeris_type": 0,
        "meta_classification_type": "U",
        "meta_norad_cat_id": 60453,
        "meta_element_set_no": 999,
        "meta_rev_at_epoch": 7266,
        "meta_bstar": 0.0004458199,
        "meta_mean_motion_dot": 8.421e-05,
        "meta_mean_motion_ddot": 0,
        "tle_line1": "1 60453U 24146B   25347.28386442  .00008421  00000+0  44582-3 0  9993",
        "tle_line2": "2 60453  45.0393  38.9677 0009433 313.9136  46.0964 15.15835188 72664"
      },
      "geometry": {
        "type": "Point",
        "coordinates": [
          -55.722235339772,
          -45.008243707399494
        ]
      }
    },
    {
      "type": "Feature",
      "properties": {
        "norad_id": 60989,
        "name": "SENTINEL-2C",
        "group": "resource",
        "lat": 11.962649054268686,
        "lon": 58.4960926631654,
        "alt_km": 790.1474052035628,
        "timestamp": "2025-12-13T20:38:50.652835+00:00",
        "meta_object_name": "SENTINEL-2C",
        "meta_object_id": "2024-157A",
        "meta_epoch": "2025-12-13T05:29:10.051584",
        "meta_mean_motion": 14.30817895,
        "meta_eccentricity": 0.00011925,
        "meta_inclination": 98.5682,
        "meta_ra_of_asc_node": 59.7041,
        "meta_arg_of_pericenter": 97.29,
        "meta_mean_anomaly": 262.8418,
        "meta_ephemeris_type": 0,
        "meta_classification_type": "U",
        "meta_norad_cat_id": 60989,
        "meta_element_set_no": 999,
        "meta_rev_at_epoch": 6639,
        "meta_bstar": 0.00010551457,
        "meta_mean_motion_dot": 2.33e-06,
        "meta_mean_motion_ddot": 0,
        "tle_line1": "1 60989U 24157A   25347.22858856  .00000233  00000+0  10551-3 0  9998",
        "tle_line2": "2 60989  98.5682  59.7041 0001192  97.2900 262.8418 14.30817895 66399"
      },
      "geometry": {
        "type": "Point",
        "coordinates": [
          58.4960926631654,
          11.962649054268686
        ]
      }
    },
    {
      "type": "Feature",
      "properties": {
        "norad_id": 61735,
        "name": "IONOSFERA-M 1",
        "group": "resource",
        "lat": -64.55805179959384,
        "lon": 18.83252310223656,
        "alt_km": 823.8317887550666,
        "timestamp": "2025-12-13T20:38:50.652845+00:00",
        "meta_object_name": "IONOSFERA-M 1",
        "meta_object_id": "2024-199A",
        "meta_epoch": "2025-12-13T07:40:46.767936",
        "meta_mean_motion": 14.22714261,
        "meta_eccentricity": 9.35e-05,
        "meta_inclination": 98.7403,
        "meta_ra_of_asc_node": 217.1637,
        "meta_arg_of_pericenter": 20.717,
        "meta_mean_anomaly": 339.4046,
        "meta_ephemeris_type": 0,
        "meta_classification_type": "U",
        "meta_norad_cat_id": 61735,
        "meta_element_set_no": 999,
        "meta_rev_at_epoch": 10127,
        "meta_bstar": 6.871089e-05,
        "meta_mean_motion_dot": 1.1e-06,
        "meta_mean_motion_ddot": 0,
        "tle_line1": "1 61735U 24199A   25347.31998574  .00000110  00000+0  68711-4 0  9992",
        "tle_line2": "2 61735  98.7403 217.1637 0000935  20.7170 339.4046 14.22714261101276"
      },
      "geometry": {
        "type": "Point",
        "coordinates": [
          18.83252310223656,
          -64.55805179959384
        ]
      }
    },
    {
      "type": "Feature",
      "properties": {
        "norad_id": 61736,
        "name": "IONOSFERA-M 2",
        "group": "resource",
        "lat": 66.95057240825871,
        "lon": -163.58330323466058,
        "alt_km": 808.7021750049198,
        "timestamp": "2025-12-13T20:38:50.652855+00:00",
        "meta_object_name": "IONOSFERA-M 2",
        "meta_object_id": "2024-199B",
        "meta_epoch": "2025-12-13T06:49:23.823264",
        "meta_mean_motion": 14.22716408,
        "meta_eccentricity": 0.00016621,
        "meta_inclination": 98.7402,
        "meta_ra_of_asc_node": 217.0409,
        "meta_arg_of_pericenter": 109.7408,
        "meta_mean_anomaly": 250.3949,
        "meta_ephemeris_type": 0,
        "meta_classification_type": "U",
        "meta_norad_cat_id": 61736,
        "meta_element_set_no": 999,
        "meta_rev_at_epoch": 10439,
        "meta_bstar": 6.9091721e-05,
        "meta_mean_motion_dot": 1.11e-06,
        "meta_mean_motion_ddot": 0,
        "tle_line1": "1 61736U 24199B   25347.28430351  .00000111  00000+0  69092-4 0  9997",
        "tle_line2": "2 61736  98.7402 217.0409 0001662 109.7408 250.3949 14.22716408104396"
      },
      "geometry": {
        "type": "Point",
        "coordinates": [
          -163.58330323466058,
          66.95057240825871
        ]
      }
    }
  ]
}